{
  "type": "FeatureCollection",
  "features": [
    {
      "type": "Feature",
      "properties": {
        "norad_id": 44873,
        "name": "CSG-1",
        "group": "resource",
        "lat": 79.11170579420558,
        "lon": 24.349543230685104,
        "alt_km": 614.1894036470876,
        "timestamp": "2025-12-02T19:35:50.219590+00:00",
        "meta_object_name": "CSG-1",
        "meta_object_id": "2019-092A",
        "meta_epoch": "2025-12-02T12:40:41.136960",
        "meta_mean_motion": 14.82172958,
        "meta_eccentricity": 0.0001377,
        "meta_inclination": 97.8806,
        "meta_ra_of_asc_node": 158.006,
        "meta_arg_of_pericenter": 83.5661,
        "meta_mean_anomaly": 276.5708,
        "meta_ephemeris_type": 0,
        "meta_classification_type": "U",
        "meta_norad_cat_id": 44873,
        "meta_element_set_no": 999,
        "meta_rev_at_epoch": 32234,
        "meta_bstar": 0.00011983,
        "meta_mean_motion_dot": 9.02e-06,
        "meta_mean_motion_ddot": 0,
        "tle_line1": "1 44873U 19092A   25336.52825390  .00000902  00000+0  11983-3 0  9995",
        "tle_line2": "2 44873  97.8806 158.0060 0001377  83.5661 276.5708 14.82172958322349"
      },
      "geometry": {
        "type": "Point",
        "coordinates": [
          24.349543230685104,
          79.11170579420558
        ]
      }
    },
    {
      "type": "Feature",
      "properties": {
        "norad_id": 46277,
        "name": "NEMO-HD",
        "group": "resource",
        "lat": -12.754737224793908,
        "lon": 37.6881812422544,
        "alt_km": 450.4486006549514,
        "timestamp": "2025-12-02T19:35:50.219601+00:00",
        "meta_object_name": "NEMO-HD",
        "meta_object_id": "2020-061F",
        "meta_epoch": "2025-12-02T11:51:20.527776",
        "meta_mean_motion": 15.40000119,
        "meta_eccentricity": 0.0002369,
        "meta_inclination": 97.2235,
        "meta_ra_of_asc_node": 35.7245,
        "meta_arg_of_pericenter": 69.4773,
        "meta_mean_anomaly": 290.6727,
        "meta_ephemeris_type": 0,
        "meta_classification_type": "U",
        "meta_norad_cat_id": 46277,
        "meta_element_set_no": 999,
        "meta_rev_at_epoch": 29166,
        "meta_bstar": 0.00033242,
        "meta_mean_motion_dot": 0.00013189,
        "meta_mean_motion_ddot": 0,
        "tle_line1": "1 46277U 20061F   25336.49398759  .00013189  00000+0  33242-3 0  9996",
        "tle_line2": "2 46277  97.2235  35.7245 0002369  69.4773 290.6727 15.40000119291666"
      },
      "geometry": {
        "type": "Point",
        "coordinates": [
          37.6881812422544,
          -12.754737224793908
        ]
      }
    },
    {
      "type": "Feature",
      "properties": {
        "norad_id": 46984,
        "name": "SENTINEL-6A",
        "group": "resource",
        "lat": 55.444932306119775,
        "lon": -136.8657118375663,
        "alt_km": 1336.9815582154088,
        "timestamp": "2025-12-02T19:35:50.219611+00:00",
        "meta_object_name": "SENTINEL-6A",
        "meta_object_id": "2020-086A",
        "meta_epoch": "2025-12-02T00:31:27.283584",
        "meta_mean_motion": 12.8092996,
        "meta_eccentricity": 0.00077311,
        "meta_inclination": 66.0388,
        "meta_ra_of_asc_node": 184.5694,
        "meta_arg_of_pericenter": 269.1438,
        "meta_mean_anomaly": 90.8692,
        "meta_ephemeris_type": 0,
        "meta_classification_type": "U",
        "meta_norad_cat_id": 46984,
        "meta_element_set_no": 999,
        "meta_rev_at_epoch": 23507,
        "meta_bstar": 0.00011630553,
        "meta_mean_motion_dot": -3.4e-07,
        "meta_mean_motion_ddot": 0,
        "tle_line1": "1 46984U 20086A   25336.02184356 -.00000034  00000+0  11631-3 0  9997",
        "tle_line2": "2 46984  66.0388 184.5694 0007731 269.1438  90.8692 12.80929960235079"
      },
      "geometry": {
        "type": "Point",
        "coordinates": [
          -136.8657118375663,
          55.444932306119775
        ]
      }
    },
    {
      "type": "Feature",
      "properties": {
        "norad_id": 48079,
        "name": "GAOFEN-12 02",
        "group": "resource",
        "lat": 50.07039965063741,
        "lon": -38.78285041370307,
        "alt_km": 621.9081422584604,
        "timestamp": "2025-12-02T19:35:50.219626+00:00",
        "meta_object_name": "GAOFEN-12 02",
        "meta_object_id": "2021-026A",
        "meta_epoch": "2025-12-02T12:52:52.728096",
        "meta_mean_motion": 14.80655034,
        "meta_eccentricity": 0.0003234,
        "meta_inclination": 97.9848,
        "meta_ra_of_asc_node": 330.5927,
        "meta_arg_of_pericenter": 121.4623,
        "meta_mean_anomaly": 238.6906,
        "meta_ephemeris_type": 0,
        "meta_classification_type": "U",
        "meta_norad_cat_id": 48079,
        "meta_element_set_no": 999,
        "meta_rev_at_epoch": 25266,
        "meta_bstar": 0.00010215,
        "meta_mean_motion_dot": 7.32e-06,
        "meta_mean_motion_ddot": 0,
        "tle_line1": "1 48079U 21026A   25336.53672139  .00000732  00000+0  10215-3 0  9997",
        "tle_line2": "2 48079  97.9848 330.5927 0003234 121.4623 238.6906 14.80655034252666"
      },
      "geometry": {
        "type": "Point",
        "coordinates": [
          -38.78285041370307,
          50.07039965063741
        ]
      }
    },
    {
      "type": "Feature",
      "properties": {
        "norad_id": 48268,
        "name": "PLEIADES NEO 3",
        "group": "resource",
        "lat": 78.76047198763224,
        "lon": 5.11268263108551,
        "alt_km": 615.887715744012,
        "timestamp": "2025-12-02T19:35:50.219640+00:00",
        "meta_object_name": "PLEIADES NEO 3",
        "meta_object_id": "2021-034A",
        "meta_epoch": "2025-12-02T12:44:44.239776",
        "meta_mean_motion": 14.81676929,
        "meta_eccentricity": 0.0001202,
        "meta_inclination": 97.8946,
        "meta_ra_of_asc_node": 49.1185,
        "meta_arg_of_pericenter": 97.9097,
        "meta_mean_anomaly": 262.2252,
        "meta_ephemeris_type": 0,
        "meta_classification_type": "U",
        "meta_norad_cat_id": 48268,
        "meta_element_set_no": 999,
        "meta_rev_at_epoch": 24853,
        "meta_bstar": -1.1597e-06,
        "meta_mean_motion_dot": -6.1e-07,
        "meta_mean_motion_ddot": 0,
        "tle_line1": "1 48268U 21034A   25336.53106759 -.00000061  00000+0 -11597-5 0  9999",
        "tle_line2": "2 48268  97.8946  49.1185 0001202  97.9097 262.2252 14.81676929248533"
      },
      "geometry": {
        "type": "Point",
        "coordinates": [
          5.11268263108551,
          78.76047198763224
        ]
      }
    },
    {
      "type": "Feature",
      "properties": {
        "norad_id": 49070,
        "name": "PLEIADES NEO 4",
        "group": "resource",
        "lat": -78.81902658424019,
        "lon": -175.19487577999004,
        "alt_km": 632.3053659950219,
        "timestamp": "2025-12-02T19:35:50.219650+00:00",
        "meta_object_name": "PLEIADES NEO 4",
        "meta_object_id": "2021-073E",
        "meta_epoch": "2025-12-02T11:56:06.103968",
        "meta_mean_motion": 14.81672662,
        "meta_eccentricity": 0.0001335,
        "meta_inclination": 97.8949,
        "meta_ra_of_asc_node": 49.0809,
        "meta_arg_of_pericenter": 96.0902,
        "meta_mean_anomaly": 264.0463,
        "meta_ephemeris_type": 0,
        "meta_classification_type": "U",
        "meta_norad_cat_id": 49070,
        "meta_element_set_no": 999,
        "meta_rev_at_epoch": 23224,
        "meta_bstar": -1.6634e-07,
        "meta_mean_motion_dot": -5.3e-07,
        "meta_mean_motion_ddot": 0,
        "tle_line1": "1 49070U 21073E   25336.49729287 -.00000053  00000+0 -16634-6 0  9995",
        "tle_line2": "2 49070  97.8949  49.0809 0001335  96.0902 264.0463 14.81672662232247"
      },
      "geometry": {
        "type": "Point",
        "coordinates": [
          -175.19487577999004,
          -78.81902658424019
        ]
      }
    },
    {
      "type": "Feature",
      "properties": {
        "norad_id": 49260,
        "name": "LANDSAT 9",
        "group": "resource",
        "lat": 72.46356104323286,
        "lon": 17.882430716580384,
        "alt_km": 694.7955180608233,
        "timestamp": "2025-12-02T19:35:50.219660+00:00",
        "meta_object_name": "LANDSAT 9",
        "meta_object_id": "2021-088A",
        "meta_epoch": "2025-12-02T04:25:27.421824",
        "meta_mean_motion": 14.57112183,
        "meta_eccentricity": 0.00010875,
        "meta_inclination": 98.2105,
        "meta_ra_of_asc_node": 44.4476,
        "meta_arg_of_pericenter": 92.5129,
        "meta_mean_anomaly": 267.6194,
        "meta_ephemeris_type": 0,
        "meta_classification_type": "U",
        "meta_norad_cat_id": 49260,
        "meta_element_set_no": 999,
        "meta_rev_at_epoch": 22231,
        "meta_bstar": 0.0001315333,
        "meta_mean_motion_dot": 5.47e-06,
        "meta_mean_motion_ddot": 0,
        "tle_line1": "1 49260U 21088A   25336.18434516  .00000547  00000+0  13153-3 0  9992",
        "tle_line2": "2 49260  98.2105  44.4476 0001087  92.5129 267.6194 14.57112183222319"
      },
      "geometry": {
        "type": "Point",
        "coordinates": [
          17.882430716580384,
          72.46356104323286
        ]
      }
    }
  ]
}